#dP2023 10 17  0  0  0.00000000      96 __u+U ITR00 EXT  IAC
## 2284 172800.00000000   900.00000000 60234 0.0000000000000
+  119   C06C07C08C09C10C11C12C13C14C16C19C20C21C22C23C24C25
+        C26C27C28C29C30C32C33C34C35C36C37C38C39C40C41C42C43
+        C44C45C46E02E03E04E05E07E08E09E10E11E12E13E14E15E19
+        E21E24E25E26E27E30E31E33E34E36G01G02G03G04G05G06G07
+        G08G09G10G11G12G13G14G15G16G17G18G19G20G21G22G23G24
+        G25G26G27G28G29G30G31G32J02J03J04R01R02R03R04R05R07
+        R08R09R11R12R13R14R15R16R17R18R19R20R21R22R24R25R26
++        11  9 11 10  9  8 10 10  8 12  8  8  7  9  8  8  8
++         7  8  8 10  7  7  8  7  9  7  9 10 12  7  7  7  6
++         9 10  9  7  7  8  7  7  7  7  8  7  8  7  7  6  8
++         6  5  6  6  7  7  8  8  7  6  7  8  8  8  7  7  7
++         8  8  7  9  7  7  7  7  6  6  8  8  6  8  6  7  7
++         8  7  6  7  8  7  7  7 11 10  9  7  8  9  6  7  7
++         9  8  6  8  9  8  8  6  7  6  9 10  7  8  8 11  8
%c M  cc GPS ccc cccc cccc cccc cccc ccccc ccccc ccccc ccccc
%c cc cc ccc ccc cccc cccc cccc cccc ccccc ccccc ccccc ccccc
%f  0.0000000  0.000000000  0.00000000000  0.000000000000000
%f  0.0000000  0.000000000  0.00000000000  0.000000000000000
%i    0    0    0    0      0      0      0      0         0
%i    0    0    0    0      0      0      0      0         0
/* IAC                                ULTRA-RAPID PREDICTION
/* S/V CLOCKS ARE ALIGNED TO GNSS TIME                      
/* G:C1WC2W R:C1PC2P E:C1XC5X C:C2IC6I J:C1CC2S             
/* PCV:IGS20_2280 OL/AL:FES2004  NONE     YN ORB:CoN CLK:CoN
*  2023 10 17  4 45  0.00000000
PC06  -2385.340380  38686.817412  16951.842842     58.280829
PC07 -11722.426758  25646.508002 -31284.575295   -170.590546
PC08 -19656.988725  33799.891529  15475.399749    292.429049
PC09   1268.417178  41223.623912  10555.435131     31.629214
PC10  -2471.858689  27146.714447 -31822.779525     16.226061
PC11  -5481.084134 -25025.710678  11170.967571    207.604636
PC12   9254.641830 -13840.107046  22442.265203    894.558849
PC13 -13374.952376  34196.866751  20599.992003    368.730151
PC14   -705.989426 -15710.742035 -23047.409278    602.217472
PC16  -6113.745080  35825.123946  21885.938386   -129.622634
PC19  11610.715128  14079.792452  21121.249292   -972.222444
PC20  -8549.355107  15040.006624  21902.560189    196.912473
PC21  25310.540604  -6931.233496  -9462.075815   -969.377255
PC22  26227.819780   4973.772443   8087.354682   -263.289536
PC23 -15250.667766  -6060.087735  22575.251444   -842.820360
PC24  12280.426409 -25011.567706   1797.083596    501.969930
PC25  -3244.071140 -21344.130556  17684.839495    234.601064
PC26  19082.258919 -14756.329370 -14078.278370   -192.835451
PC27 -15088.725808   5722.357561 -22782.465751    214.569025
PC28 -19765.258644 -11976.466293 -15639.318882    161.481028
PC29  13516.585709  24274.574532  -2586.457663    188.768343
PC30  -1800.095535  20948.790188 -18359.498166     -6.647661
PC32 -25328.173354   7072.475809   9353.957291   -530.129764
PC33 -11603.946958 -14056.608304 -21139.192865   -953.639707
PC34    622.178495 -21749.654978  17456.178463    282.794571
PC35  20251.693104  11165.442031  15634.331934    523.572957
PC36   2069.494537  21884.628193 -17160.803818   -176.287860
PC37 -19470.117285  13579.470503  14661.322956   -855.888794
PC38 -23713.296504  34027.667826   7069.403224    111.636814
PC39  -7522.051375  32740.197840  25671.159955     -5.275979
PC40 -16671.405547  18858.241906 -33848.015188    -40.425736
PC41 -25956.013544  -5310.823195  -8727.720966   -872.815407
PC42  10167.240326 -14791.039567 -21328.324625   -520.126546
PC43 -12898.061748 -24498.442669   3422.763612     44.289901
PC44  15100.995631  -6135.577868  22642.291736    264.032989
PC45  15440.711023   5399.539771 -22611.526761    -36.861641
PC46 -11531.737485  25210.280796  -2986.369900    -92.465558
PE02 -11666.808667 -12567.019502  24127.093722     70.826287
PE03 -20823.163413 -19419.227225  -8118.100484    -65.629638
PE04  26615.649834   7755.760087 -10378.790946   -236.069158
PE05  -2964.228349 -19770.065583 -21833.804575     28.190018
PE07 -17080.989068   8235.700014  22726.657703    -82.512554
PE08 -26647.868723  -8190.439654   9953.084601   -162.589769
PE09  17107.876576  -8043.194745 -22780.252948   -194.182464
PE10  15538.609255  -7940.624196  23907.778879   -571.745952
PE11  12684.418588 -18979.132967  18833.980853   3099.630542
PE12  15909.710495   3250.576966  24747.650767   -739.646671
PE13 -12881.398642  18324.875096 -19343.153176    -19.668658
PE14 -23220.569880 -19842.785540   3281.408477    370.870593
PE15 -15791.433058  -3772.877809 -24743.398113    -61.827823
PE19  19012.236933  20184.884629  10363.684447  -1409.157168
PE21  -8200.221338  20121.880662 -20094.894875   -558.878326
PE24  24633.676618 -16023.897283   3647.900341   -379.939963
PE25   8585.177539 -20175.272402  19897.978977     -3.361865
PE26  -2078.585023  29452.171769  -2002.379920    253.525908
PE27 -24301.505051  16362.180192  -4181.306461   -176.471584
PE30 -25788.951463   2595.369609  14278.133676   -586.050555
PE31  25906.865905  -3027.052772 -13990.123646     -7.820515
PE33   9105.157083  23758.177497  15117.233366      0.484952
PE34  -9462.568363 -23328.709969 -15587.276816    -72.811651
PE36   2486.459668 -29372.153987   2716.776605   -130.989669
PG01  13346.970307 -11620.891026  19344.987509    163.650610
PG02  14898.227516  -4825.468208  21937.938327   -541.060351
PG03  23396.190805 -12445.086296   -108.294277    -74.142783
PG04  17166.975877  -4924.569957 -19691.541178    186.639299
PG05 -22836.361520   2675.350617 -13561.029949   -146.802325
PG06  -6255.027115 -23177.780887 -11195.057063    528.811741
PG07   5731.499678 -24653.101695  -6715.329706     38.335460
PG08  23089.210537   2810.269474  13113.491206   -147.524597
PG09   7875.120795 -13176.397443 -21764.641018    -30.213877
PG10   1264.702706  15665.484960  21541.664062    -57.644425
PG11 -12448.326506 -12963.017232 -19555.400735   -418.619700
PG12 -24677.397371   9442.644248   2009.556492   -436.726105
PG13 -22377.791507 -12688.210426   6844.812029    584.879496
PG14   2765.184975 -17330.015318  19911.605397    216.258460
PG15 -22877.771962    609.868578  13184.337674     87.864188
PG16  20558.356991   4044.743749 -16898.952290   -437.860482
PG17  -7137.670029 -19411.072505  17031.679807    723.807618
PG18  -5045.298210  25414.028281  -5372.233932   -451.173581
PG19 -14932.899375 -19957.998873   9455.054530    386.022523
PG20 -15650.948245  -6318.035851 -20421.022906    406.423923
PG21  15442.521598    -53.101020  22132.320751    146.584062
PG22  -4013.900683 -14947.343844  22054.866581    101.452703
PG23 -11792.136472  18375.843695  15003.917286     83.877168
PG24 -14810.545637   6802.213207  20515.535732   -348.055554
PG25 -17679.890864  17386.874776  -9452.729463    473.082314
PG26  12774.852821  10377.683896 -21022.928233    222.720773
PG27  23314.454690  13043.420546   1728.189374    -56.288606
PG28   6352.591848  24108.535012  -9184.457327    -27.002686
PG29  -8808.839400  12068.483882 -22002.640539   -610.086285
PG30  -1031.956147 -26251.756612   2888.559054   -477.832121
PG31  10938.908989  17332.260960 -16855.252985   -224.740190
PG32  12212.257247  19119.736008  14157.125661   -573.701918
PJ02 -35379.708098  20112.493955  -6264.483559     -5.829215
PJ03 -20111.877670  26586.189101 -21184.624539     -5.322219
PJ04 -28327.459294  28288.651715  19249.076549     71.271538
PR01  16887.490035  10100.084809  16222.679363     67.841479
PR02  25202.062939   4164.731311   -381.763512    -22.386027
PR03  18959.254943  -4741.110461 -16392.533227     87.225197
PR04   2444.612502 -10478.700409 -23105.786866    207.174823
PR05 -15307.350555 -10816.934446 -17281.029481    120.745807
PR07 -18206.913218   5177.854759  17100.526961     67.022544
PR08  -2117.315991  10687.456947  23115.164153    -72.965185
PR09 -15456.810980   3893.647754  19960.824380    148.063592
PR11 -10917.013586  21005.886146  -9509.275900   -199.111135
PR12   3730.677765  12205.604537 -22056.436273     32.430878
PR13  14288.366089  -1795.143637 -21067.001223    -40.280711
PR14  17693.887438 -17151.530553  -6540.414665     25.419655
PR15  10122.067034 -20782.945780  10799.135001     85.315755
PR16  -3491.816450 -12311.788775  22070.351647     19.725968
PR17   7278.572299  -9773.427326  22429.160037     26.477985
PR18  -1821.605737 -22020.135128  12729.685471    107.236241
PR19  -8760.536142 -23875.639064  -2057.533154   -251.173728
PR20 -12517.780185 -10062.846367 -19793.451581   -101.947157
PR21  -6898.415859  10418.012698 -22226.824614    -46.152829
PR22   1549.086315  22605.234886 -11693.490981     89.052835
PR24  13230.609871   8836.214500  19950.904177    -28.509249
PR25  -8002.876233   9463.392485 -22282.522363     -5.269630
PR26  -2677.842802  10573.270688  23072.717500    -20.370108
EOF
